sat15473
1 15473U 85003E   20046.89686888  .00000011  00000-0  38576-5 0  9995
2 15473  82.6100 111.9409 0012318  12.5926 161.6038 12.64471999619243
